#aV2014  4  8  0  0  0.00000000     288 DD+AD WGS84 FIT  NGA
## 1787 172800.00000000   300.00000000 56755 0.0000000000000
+   31     1  2  3  4  5  7  8  9 10 11 12 13 14 15 16 17 18
+         19 20 21 22 23 24 25 26 27 28 29 30 31 32  0  0  0
+          0  0  0  0  0  0  0  0  0  0  0  0  0  0  0  0  0
+          0  0  0  0  0  0  0  0  0  0  0  0  0  0  0  0  0
+          0  0  0  0  0  0  0  0  0  0  0  0  0  0  0  0  0
++         2  2  2  2  2  2  2  2  2  2  2  2  2  2  2  2  2
++         2  2  2  2  2  2  2  2  2  2  2  2  2  2  0  0  0
++         0  0  0  0  0  0  0  0  0  0  0  0  0  0  0  0  0
++         0  0  0  0  0  0  0  0  0  0  0  0  0  0  0  0  0
++         0  0  0  0  0  0  0  0  0  0  0  0  0  0  0  0  0
%c cc cc ccc ccc cccc cccc cccc cccc ccccc ccccc ccccc ccccc
%c cc cc ccc ccc cccc cccc cccc cccc ccccc ccccc ccccc ccccc
%f  0.0000000  0.000000000  0.00000000000  0.000000000000000
%f  0.0000000  0.000000000  0.00000000000  0.000000000000000
%i    0    0    0    0      0      0      0      0         0
%i    0    0    0    0      0      0      0      0         0
/*      NGA, ST. LOUIS,MO.                                  
/*   EPHEMERIS COMPUTED FROM  1 DAYS OF DATA                
/*   EPOCHA SMOOTHER                                       
/* CCCCCCCCCCCCCCCCCCCCCCCCCCCCCCCCCCCCCCCCCCCCCCCCCCCCCCCCC
*  2014  4  8 19 30  0.00000000
P  1 -20935.839460 -13579.320137  -9317.106680      7.751174                    
V  1  11931.747204   1275.543855 -28630.784928      0.016199                    
P  2   -328.401520  16191.991334  21384.960911    488.596686                    
V  2 -25550.598020  -7132.751667   4578.396378      0.021735                    
P  3   1165.300089 -20969.947507 -16711.800763    349.226937                    
V  3  14493.242037 -14440.745866  19941.569131      0.048805                    
P  4 -16522.820462   9086.034796  18488.241964      6.521534                    
V  4 -22539.825509  -8720.627547 -15364.138146      0.003118                    
P  5   2076.703320  25891.024059   5073.541015   -380.006485                    
V  5  -4637.391518  -5653.621836  30681.676445      0.021190                    
P  7 -25744.731858  -5626.260898  -4455.987612    333.107394                    
V  7  -4697.191691  -3825.023069  31162.731296      0.042272                    
P  8 -22689.915574   -320.824383 -14140.500398     12.794563                    
V  8 -15913.888304  -8288.047371  24863.411340      0.002613                    
P  9 -21172.417875   4475.115507 -16051.268000    318.656253                    
V  9 -18004.154816  -7039.258431  22371.741140      0.028211                    
P 10 -10684.181850  15067.308354  18595.233173   -120.988186                    
V 10  -6866.182819 -23619.738681  15344.838976     -0.013199                    
P 11 -15518.751367 -13770.069455 -17177.526183   -479.017103                    
V 11  21075.313742  -2791.523707 -17078.248676     -0.032743                    
P 12  11239.385022  21524.055408  10965.967474    197.349874                    
V 12    930.925245  13957.777725 -27975.849427      0.024222                    
P 13 -20070.529696    271.790634  17336.196503     11.785826                    
V 13  17061.949112 -14238.844469  19667.953396     -0.038848                    
P 14  22015.477388 -14228.845129  -3534.866520    183.388126                    
V 14  -2123.642584   5014.385849 -31643.128933     -0.033106                    
P 15   5752.442209  15649.251450 -20676.157667   -172.790721                    
V 15 -19485.694496  17662.623514   8257.219301     -0.021240                    
P 16   -730.821500 -25836.731660   5150.224999   -224.118961                    
V 16   3236.434606   6207.771538  31694.265083      0.017441                    
P 17 -21185.928101  15574.967802  -2457.489592    -83.372310                    
V 17    848.043987  -4360.374458 -31859.911835     -0.032020                    
P 18  16379.293743   3333.424985 -20258.185454    312.041458                    
V 18   5081.558441  26327.020574   7928.522972      0.023067                    
P 19  -2606.563731 -16197.152070 -20923.913390   -449.821053                    
V 19  21616.825876 -15117.797037   9505.631759     -0.022973                    
P 20 -14039.218208 -19747.919082  10770.649275    177.754974                    
V 20   -642.456237 -14376.214949 -26657.721921      0.036359                    
P 21  25764.847698   3360.043009  -5952.672469   -354.176149                    
V 21   6947.146521   5594.960718  29586.110343     -0.022175                    
P 22  12896.605611 -11382.882233 -19996.358243    225.423998                    
V 22   7085.620197  25082.839201  -9770.297309      0.027443                    
P 23 -12217.765616  -9713.458468  21613.810115    -10.733341                    
V 23  20196.638418 -18240.911823   2825.696464     -0.031581                    
P 24  17085.355161  15224.813459 -13582.215553    -26.343231                    
V 24 -17084.300558  -2894.227907 -24678.952114     -0.005936                    
P 25  15473.422867  10120.316890  19053.094600     21.205575                    
V 25   4217.927236  23901.463199 -15935.199303      0.010992                    
P 26  -7129.282153  19638.321635 -16878.057849    114.615505                    
V 26 -17145.400913  10934.809501  21081.860310     -0.112660                    
P 27   8692.428724 -20981.277290 -13731.647751    -20.058324                    
V 27  14320.855990 -10207.154541  24714.087483      0.005956                    
P 28 -13192.285151   7016.583011 -21340.582903    345.798497                    
V 28  -4876.410301 -28079.026188  -6177.603435      0.028188                    
P 29  18969.267885    925.084030  18591.490021    524.081334                    
V 29 -17269.926374  16015.554593  16909.643177      0.026756                    
P 30 -23052.562019    635.596343 -13203.444869      0.837560                    
V 30 -14668.277884  -8396.422498  25198.213296     -0.025545                    
P 31  12138.286915 -10861.070812  21198.000441    334.149756                    
V 31  24797.196732   9182.118328  -9258.182765      0.001474                    
P 32  -4624.799677 -26417.299890   1541.540899   -453.328065                    
V 32   2469.431563  -2197.751027 -31042.983828      0.075403                    
EOF
